{
  "type": "FeatureCollection",
  "features": [
    {
      "type": "Feature",
      "properties": {
        "norad_id": 66629,
        "name": "STARLINK-35956",
        "group": "last-30-days",
        "lat": 38.54877956694996,
        "lon": -124.9220536728455,
        "alt_km": 381.9253120046624,
        "timestamp": "2025-12-10T09:57:43.490084+00:00",
        "meta_object_name": "STARLINK-35956",
        "meta_object_id": "2025-271N",
        "meta_epoch": "2025-12-10T04:00:01.998720",
        "meta_mean_motion": 15.61171625,
        "meta_eccentricity": 0.0001104,
        "meta_inclination": 53.1597,
        "meta_ra_of_asc_node": 199.6018,
        "meta_arg_of_pericenter": 82.0843,
        "meta_mean_anomaly": 12.7947,
        "meta_ephemeris_type": 0,
        "meta_classification_type": "U",
        "meta_norad_cat_id": 66629,
        "meta_element_set_no": 999,
        "meta_rev_at_epoch": 383,
        "meta_bstar": -0.026598,
        "meta_mean_motion_dot": -0.02010379,
        "meta_mean_motion_ddot": 0,
        "tle_line1": "1 66629U 25271N   25344.16668980 -.02010379  00000+0 -26598-1 0  9992",
        "tle_line2": "2 66629  53.1597 199.6018 0001104  82.0843  12.7947 15.61171625  3835"
      },
      "geometry": {
        "type": "Point",
        "coordinates": [
          -124.9220536728455,
          38.54877956694996
        ]
      }
    },
    {
      "type": "Feature",
      "properties": {
        "norad_id": 66630,
        "name": "STARLINK-35949",
        "group": "last-30-days",
        "lat": 39.765556910558026,
        "lon": -123.01058055768223,
        "alt_km": 381.6751164949774,
        "timestamp": "2025-12-10T09:57:43.490095+00:00",
        "meta_object_name": "STARLINK-35949",
        "meta_object_id": "2025-271P",
        "meta_epoch": "2025-12-10T04:00:01.998720",
        "meta_mean_motion": 15.61171435,
        "meta_eccentricity": 0.0001092,
        "meta_inclination": 53.1594,
        "meta_ra_of_asc_node": 199.5964,
        "meta_arg_of_pericenter": 71.7817,
        "meta_mean_anomaly": 25.0131,
        "meta_ephemeris_type": 0,
        "meta_classification_type": "U",
        "meta_norad_cat_id": 66630,
        "meta_element_set_no": 999,
        "meta_rev_at_epoch": 383,
        "meta_bstar": -0.026579,
        "meta_mean_motion_dot": -0.02009123,
        "meta_mean_motion_ddot": 0,
        "tle_line1": "1 66630U 25271P   25344.16668980 -.02009123  00000+0 -26579-1 0  9998",
        "tle_line2": "2 66630  53.1594 199.5964 0001092  71.7817  25.0131 15.61171435  3836"
      },
      "geometry": {
        "type": "Point",
        "coordinates": [
          -123.01058055768223,
          39.765556910558026
        ]
      }
    },
    {
      "type": "Feature",
      "properties": {
        "norad_id": 66631,
        "name": "STARLINK-35965",
        "group": "last-30-days",
        "lat": 40.94929623056171,
        "lon": -121.0303246438682,
        "alt_km": 381.6371443293592,
        "timestamp": "2025-12-10T09:57:43.490105+00:00",
        "meta_object_name": "STARLINK-35965",
        "meta_object_id": "2025-271Q",
        "meta_epoch": "2025-12-10T04:00:01.998720",
        "meta_mean_motion": 15.61174795,
        "meta_eccentricity": 9.43e-05,
        "meta_inclination": 53.1595,
        "meta_ra_of_asc_node": 199.5931,
        "meta_arg_of_pericenter": 88.8748,
        "meta_mean_anomaly": 9.8366,
        "meta_ephemeris_type": 0,
        "meta_classification_type": "U",
        "meta_norad_cat_id": 66631,
        "meta_element_set_no": 999,
        "meta_rev_at_epoch": 383,
        "meta_bstar": -0.026641,
        "meta_mean_motion_dot": -0.02013331,
        "meta_mean_motion_ddot": 0,
        "tle_line1": "1 66631U 25271Q   25344.16668980 -.02013331  00000+0 -26641-1 0  9995",
        "tle_line2": "2 66631  53.1595 199.5931 0000943  88.8748   9.8366 15.61174795  3830"
      },
      "geometry": {
        "type": "Point",
        "coordinates": [
          -121.0303246438682,
          40.94929623056171
        ]
      }
    },
    {
      "type": "Feature",
      "properties": {
        "norad_id": 66632,
        "name": "STARLINK-35973",
        "group": "last-30-days",
        "lat": 42.097467132134426,
        "lon": -118.97971934285574,
        "alt_km": 381.3468141291505,
        "timestamp": "2025-12-10T09:57:43.490114+00:00",
        "meta_object_name": "STARLINK-35973",
        "meta_object_id": "2025-271R",
        "meta_epoch": "2025-12-10T04:00:01.998720",
        "meta_mean_motion": 15.61171012,
        "meta_eccentricity": 0.0001055,
        "meta_inclination": 53.1594,
        "meta_ra_of_asc_node": 199.5891,
        "meta_arg_of_pericenter": 78.4574,
        "meta_mean_anomaly": 22.1717,
        "meta_ephemeris_type": 0,
        "meta_classification_type": "U",
        "meta_norad_cat_id": 66632,
        "meta_element_set_no": 999,
        "meta_rev_at_epoch": 377,
        "meta_bstar": -0.026572,
        "meta_mean_motion_dot": -0.02008552,
        "meta_mean_motion_ddot": 0,
        "tle_line1": "1 66632U 25271R   25344.16668980 -.02008552  00000+0 -26572-1 0  9998",
        "tle_line2": "2 66632  53.1594 199.5891 0001055  78.4574  22.1717 15.61171012  3772"
      },
      "geometry": {
        "type": "Point",
        "coordinates": [
          -118.97971934285574,
          42.097467132134426
        ]
      }
    },
    {
      "type": "Feature",
      "properties": {
        "norad_id": 66633,
        "name": "STARLINK-35948",
        "group": "last-30-days",
        "lat": 43.207954236578566,
        "lon": -116.85573814652278,
        "alt_km": 381.12855733151173,
        "timestamp": "2025-12-10T09:57:43.490125+00:00",
        "meta_object_name": "STARLINK-35948",
        "meta_object_id": "2025-271S",
        "meta_epoch": "2025-12-10T04:00:01.998720",
        "meta_mean_motion": 15.61171526,
        "meta_eccentricity": 0.0001094,
        "meta_inclination": 53.1597,
        "meta_ra_of_asc_node": 199.5842,
        "meta_arg_of_pericenter": 75.2359,
        "meta_mean_anomaly": 27.3088,
        "meta_ephemeris_type": 0,
        "meta_classification_type": "U",
        "meta_norad_cat_id": 66633,
        "meta_element_set_no": 999,
        "meta_rev_at_epoch": 383,
        "meta_bstar": -0.026578,
        "meta_mean_motion_dot": -0.02009027,
        "meta_mean_motion_ddot": 0,
        "tle_line1": "1 66633U 25271S   25344.16668980 -.02009027  00000+0 -26578-1 0  9993",
        "tle_line2": "2 66633  53.1597 199.5842 0001094  75.2359  27.3088 15.61171526  3836"
      },
      "geometry": {
        "type": "Point",
        "coordinates": [
          -116.85573814652278,
          43.207954236578566
        ]
      }
    },
    {
      "type": "Feature",
      "properties": {
        "norad_id": 66634,
        "name": "STARLINK-35967",
        "group": "last-30-days",
        "lat": 44.277795217457786,
        "lon": -114.6521550137331,
        "alt_km": 380.9351047123382,
        "timestamp": "2025-12-10T09:57:43.490140+00:00",
        "meta_object_name": "STARLINK-35967",
        "meta_object_id": "2025-271T",
        "meta_epoch": "2025-12-10T04:00:01.998720",
        "meta_mean_motion": 15.61170373,
        "meta_eccentricity": 0.000113,
        "meta_inclination": 53.1596,
        "meta_ra_of_asc_node": 199.58,
        "meta_arg_of_pericenter": 74.9775,
        "meta_mean_anomaly": 29.4853,
        "meta_ephemeris_type": 0,
        "meta_classification_type": "U",
        "meta_norad_cat_id": 66634,
        "meta_element_set_no": 999,
        "meta_rev_at_epoch": 376,
        "meta_bstar": -0.026565,
        "meta_mean_motion_dot": -0.02008123,
        "meta_mean_motion_ddot": 0,
        "tle_line1": "1 66634U 25271T   25344.16668980 -.02008123  00000+0 -26565-1 0  9996",
        "tle_line2": "2 66634  53.1596 199.5800 0001130  74.9775  29.4853 15.61170373  3763"
      },
      "geometry": {
        "type": "Point",
        "coordinates": [
          -114.6521550137331,
          44.277795217457786
        ]
      }
    },
    {
      "type": "Feature",
      "properties": {
        "norad_id": 66635,
        "name": "STARLINK-35955",
        "group": "last-30-days",
        "lat": 45.30335187752606,
        "lon": -112.36886961868188,
        "alt_km": 380.7996127520646,
        "timestamp": "2025-12-10T09:57:43.490150+00:00",
        "meta_object_name": "STARLINK-35955",
        "meta_object_id": "2025-271U",
        "meta_epoch": "2025-12-10T04:00:01.998720",
        "meta_mean_motion": 15.61173722,
        "meta_eccentricity": 0.0001097,
        "meta_inclination": 53.1597,
        "meta_ra_of_asc_node": 199.5763,
        "meta_arg_of_pericenter": 77.4188,
        "meta_mean_anomaly": 28.9587,
        "meta_ephemeris_type": 0,
        "meta_classification_type": "U",
        "meta_norad_cat_id": 66635,
        "meta_element_set_no": 999,
        "meta_rev_at_epoch": 383,
        "meta_bstar": -0.026604,
        "meta_mean_motion_dot": -0.02010933,
        "meta_mean_motion_ddot": 0,
        "tle_line1": "1 66635U 25271U   25344.16668980 -.02010933  00000+0 -26604-1 0  9993",
        "tle_line2": "2 66635  53.1597 199.5763 0001097  77.4188  28.9587 15.61173722  3838"
      },
      "geometry": {
        "type": "Point",
        "coordinates": [
          -112.36886961868188,
          45.30335187752606
        ]
      }
    }
  ]
}